GLOBALSTAR M001         
1 25162U 98008A   25044.93589080 -.00000068  00000+0  21988-3 0  9993
2 25162  52.0059 331.9584 0001826   8.8874  78.5729 12.38206916228440
GLOBALSTAR M004         
1 25163U 98008B   25044.59799310 -.00000054  00000+0  27808-3 0  9997
2 25163  52.0001  71.1903 0002968  23.4407 128.0457 12.63387998246064
GLOBALSTAR M002         
1 25164U 98008C   25044.84498022 -.00000084  00000+0 -13832-3 0  9998
2 25164  51.9992 189.4629 0000317 256.8315 103.2470 11.61508277169736
GLOBALSTAR M003         
1 25165U 98008D   25044.57569301 -.00000004  00000+0  91275-3 0  9996
2 25165  51.9985 150.8675 0008226  48.7710 324.0769 12.12071303218232
GLOBALSTAR M014         
1 25306U 98023A   25044.73021799 -.00000059  00000+0  35168-3 0  9991
2 25306  51.9832 115.5725 0001632 132.4122  16.8070 11.65478134176779
GLOBALSTAR M006         
1 25307U 98023B   25044.82458227 -.00000082  00000+0 -13173-3 0  9991
2 25307  51.9925 163.1953 0003011 227.7019 301.4893 11.58172342202535
GLOBALSTAR M015         
1 25308U 98023C   25044.94555863 -.00000051  00000+0  51925-3 0  9991
2 25308  51.9793 255.7202 0011974 213.2280 243.8331 11.48858171179912
GLOBALSTAR M008         
1 25309U 98023D   25044.93706727 -.00000118  00000+0 -16935-3 0  9995
2 25309  51.9948 195.3866 0001589 272.5887 237.8640 12.36062425222600
